OBJECT_NAME,OBJECT_ID,EPOCH,MEAN_MOTION,ECCENTRICITY,INCLINATION,RA_OF_ASC_NODE,ARG_OF_PERICENTER,MEAN_ANOMALY,EPHEMERIS_TYPE,CLASSIFICATION_TYPE,NORAD_CAT_ID,ELEMENT_SET_NO,REV_AT_EPOCH,BSTAR,MEAN_MOTION_DOT,MEAN_MOTION_DDOT
SAUDISAT 1C (SO-50),2002-058C,2026-07-22T21:26:48.132096,14.83110206,.00742914,64.5523,18.5035,255.8641,103.4202,0,U,27607,999,26975,.121261E-3,.881E-5,0
SAUDISAT 2,2004-025F,2026-07-22T22:52:42.902112,14.56701372,.00245749,98.5525,204.8625,184.0239,176.0765,0,U,28371,999,17095,.57188149E-4,.207E-5,0
SAUDISAT 3,2007-012B,2026-07-21T19:17:11.070240,14.71442858,.00158826,98.1470,153.2305,115.1779,245.1077,0,U,31118,999,3283,.37680351E-4,.183E-5,0
PISAT,2016-059B,2026-07-22T18:25:34.561632,14.69039402,.00305835,97.8195,202.6949,91.7871,268.6838,0,U,41784,999,52496,.13508281E-3,.751E-5,0
FLYING LAPTOP,2017-042G,2026-07-22T21:52:24.179808,15.01347345,.0019251,97.4846,358.1091,7.9108,352.2417,0,U,42831,999,49181,.22424828E-3,.2841E-4,0
SALSAT,2020-068K,2026-07-22T11:04:14.814912,15.30243913,.00099778,97.8868,208.6876,167.8214,192.3268,0,U,46495,999,32075,.24997179E-3,.7239E-4,0
