{"epoch":1784799577,"count":18318,"objects":[{"id":"27607","name":"SAUDISAT 1C","type":"PAYLOAD","l1":"1 27607U 02058C   26203.89361264  .00000881  00000-0  12126-3 0  9991","l2":"2 27607  64.5523  18.5035 0074291 255.8641 103.4202 14.83110206269752"},{"id":"28371","name":"SAUDISAT 2","type":"PAYLOAD","l1":"1 28371U 04025F   26203.95327433  .00000207  00000-0  57188-4 0  9993","l2":"2 28371  98.5525 204.8625 0024575 184.0239 176.0765 14.56701372170954"},{"id":"31118","name":"SAUDISAT 3","type":"PAYLOAD","l1":"1 31118U 07012B   26202.80360035  .00000183  00000-0  37680-4 0  9991","l2":"2 31118  98.1470 153.2305 0015883 115.1779 245.1077 14.71442858 32836"},{"id":"41784","name":"PISAT","type":"PAYLOAD","l1":"1 41784U 16059B   26203.76776113  .00000751  00000-0  13508-3 0  9999","l2":"2 41784  97.8195 202.6949 0030583  91.7871 268.6838 14.69039402524964"},{"id":"42831","name":"FLYING LAPTOP","type":"PAYLOAD","l1":"1 42831U 17042G   26203.91139097  .00002841  00000-0  22425-3 0  9997","l2":"2 42831  97.4846 358.1091 0019251   7.9108 352.2417 15.01347345491818"},{"id":"46495","name":"SALSAT","type":"PAYLOAD","l1":"1 46495U 20068K   26203.46128258  .00007239  00000-0  24997-3 0  9998","l2":"2 46495  97.8868 208.6876 0009978 167.8214 192.3268 15.30243913320754"}]}